ONEWEB-0201             
1 48241U 21031AH  24050.18103986  .00000052  00000+0  10632-3 0  9994
2 48241  87.8926  98.7090 0001735  97.9179 262.2148 13.14503073136846
ONEWEB-0207             
1 48242U 21031AJ  24049.85594274 -.00000159  00000+0 -46253-3 0  9999
2 48242  87.8923  98.7411 0001837 106.5975 253.5357 13.14500915136718
ONEWEB-0208             
1 48243U 21031AK  24049.83771516 -.00000038  00000+0 -13644-3 0  9998
2 48243  87.8926  98.7604 0001710  94.3381 265.7944 13.14503217136727
ONEWEB-0200             
1 48244U 21031AL  24050.18183735  .00000106  00000+0  25145-3 0  9992
2 48244  87.8922  98.6906 0001716  92.4966 267.6360 13.14503220136707
ONEWEB-0217             
1 48245U 21031AM  24050.50215937  .00000228  00000+0  57982-3 0  9998
2 48245  87.8923  98.6113 0001644  87.8830 272.2488 13.14504154136695
ONEWEB-0211             
1 48767U 21045A   24050.06705807 -.00000057  00000+0 -18434-3 0  9994
2 48767  87.8943  68.1822 0001878  91.3072 268.8273 13.15552573133905
ONEWEB-0223             
1 48768U 21045B   24050.08923887 -.00000025  00000+0 -10160-3 0  9990
2 48768  87.8944  68.1810 0002371  75.0020 285.1373 13.15549976133901
ONEWEB-0230             
1 48769U 21045C   24049.75650067  .00000021  00000+0  20801-4 0  9998
2 48769  87.8945  68.3200 0002020  92.7890 267.3471 13.15550508132981
ONEWEB-0237             
1 48770U 21045D   24050.50598580  .00000206  00000+0  51328-3 0  9998
2 48770  87.8954  68.0942 0002185  80.9503 279.1875 13.15549484133931
ONEWEB-0235             
1 48771U 21045E   24050.10035130  .00000099  00000+0  22789-3 0  9991
2 48771  87.8941  68.1948 0002509  77.9835 282.1577 13.15548059133861
ONEWEB-0242             
1 48772U 21045F   24050.09401335  .00000015  00000+0  55206-5 0  9994
2 48772  87.8941  68.1855 0002104  89.2359 270.9013 13.15548268133915
ONEWEB-0241             
1 48773U 21045G   24049.77710308 -.00000086  00000+0 -26273-3 0  9991
2 48773  87.8951  68.2845 0001834  77.1757 282.9578 13.15548966132658
ONEWEB-0243             
1 48774U 21045H   24049.96091528  .00000247  00000+0  62216-3 0  9993
2 48774  87.8954  68.2060 0002249  78.3605 281.7777 13.15561335132706
ONEWEB-0222             
1 48775U 21045J   24050.10025531  .00000044  00000+0  81346-4 0  9994
2 48775  87.8941  68.1965 0001927  80.7915 279.3433 13.16034096133881
ONEWEB-0244             
1 48776U 21045K   24050.50281345  .00000152  00000+0  37093-3 0  9995
2 48776  87.8941  68.0985 0002175  91.4087 268.7293 13.15549166134502
ONEWEB-0247             
1 48777U 21045L   24050.49965898  .00000192  00000+0  47650-3 0  9990
2 48777  87.8949  68.1308 0002826  73.6199 286.5242 13.15548251133954
ONEWEB-0245             
1 48778U 21045M   24049.96249364  .00000167  00000+0  41009-3 0  9998
2 48778  87.8941  68.2355 0001748  81.7399 278.3929 13.15549432132721
ONEWEB-0229             
1 48779U 21045N   24049.95774378  .00000169  00000+0  41376-3 0  9995
2 48779  87.8942  68.2285 0002096  88.4683 271.6687 13.15548766132751
ONEWEB-0228             
1 48780U 21045P   24050.50519343  .00000192  00000+0  47520-3 0  9992
2 48780  87.8942  68.0971 0002011  89.3918 270.7442 13.15548506133876
ONEWEB-0232             
1 48781U 21045Q   24050.11778199  .00000181  00000+0  44623-3 0  9995
2 48781  87.8936  68.2015 0002014  88.5559 271.5802 13.15549286134131
ONEWEB-0231             
1 48782U 21045R   24049.79135284  .00000168  00000+0  41162-3 0  9990
2 48782  87.8951  68.2782 0002091  85.2334 274.9035 13.15548755132661
ONEWEB-0234             
1 48783U 21045S   24050.49565520  .00003433  00000+0  90795-2 0  9993
2 48783  87.8943  68.1057 0000446 144.9040 215.2120 13.15574257134027
ONEWEB-0238             
1 48784U 21045T   24049.76520237 -.00000285  00000+0 -79244-3 0  9999
2 48784  87.8944  68.2703 0001772  93.5012 266.6321 13.15547884132699
ONEWEB-0240             
1 48785U 21045U   24049.77472676 -.00000101  00000+0 -30116-3 0  9996
2 48785  87.8943  68.2365 0001913  76.6204 283.5140 13.15548600132723
ONEWEB-0246             
1 48786U 21045V   24050.07341836  .00000906  00000+0  23726-2 0  9994
2 48786  87.8946  68.1791 0002110  90.6956 269.4416 13.15552262133751
ONEWEB-0210             
1 48787U 21045W   24050.50438717  .00000210  00000+0  52472-3 0  9997
2 48787  87.8944  68.1001 0002621  88.0717 272.0714 13.15550416133869
ONEWEB-0214             
1 48788U 21045X   24050.43785957 -.00002202  00000+0 -58837-2 0  9996
2 48788  87.8944  68.1020 0002981  90.9747 269.1725 13.15559353133818
ONEWEB-0221             
1 48789U 21045Y   24049.75965531 -.00000001  00000+0 -35463-4 0  9995
2 48789  87.8945  68.2521 0001977  82.5827 277.5528 13.15550640132696
ONEWEB-0213             
1 48790U 21045Z   24050.12885988  .00000045  00000+0  86463-4 0  9999
2 48790  87.8945  68.1942 0002144  80.6737 279.4636 13.15549856133936
ONEWEB-0212             
1 48791U 21045AA  24049.95378121  .00000162  00000+0  39620-3 0  9997
2 48791  87.8945  68.2095 0001815  92.3697 267.7641 13.15548928132772
ONEWEB-0227             
1 48792U 21045AB  24050.10510851  .00000126  00000+0  30040-3 0  9992
2 48792  87.8944  68.1962 0001881  87.0665 273.0681 13.15549032133876
ONEWEB-0226             
1 48793U 21045AC  24049.79453214  .00000108  00000+0  25260-3 0  9993
2 48793  87.8943  68.2657 0002434  84.0120 276.1288 13.15549011132677
ONEWEB-0224             
1 48794U 21045AD  24050.13837705 -.00000034  00000+0 -12484-3 0  9999
2 48794  87.8949  68.2130 0001750  64.9184 295.2128 13.15549443133762
ONEWEB-0233             
1 48795U 21045AE  24050.05835709  .00000052  00000+0  10360-3 0  9992
2 48795  87.8947  68.2417 0002115  90.0247 270.1125 13.15549188133760
ONEWEB-0190             
1 48796U 21045AF  24050.43466985  .00000270  00000+0  68442-3 0  9997
2 48796  87.8949  68.1287 0002606  67.6777 292.4629 13.15548071133890
ONEWEB-0236             
1 48797U 21045AG  24050.29999597 -.00000033  00000+0 -12142-3 0  9997
2 48797  87.8951  68.1448 0001864  87.1321 273.0023 13.15549145133762
ONEWEB-0248             
1 48798U 21045AH  24049.78026280 -.00000006  00000+0 -50542-4 0  9997
2 48798  87.8942  68.2498 0001918  65.7383 294.3948 13.15549982132736
ONEWEB-0225             
1 48799U 21045AJ  24049.95457085  .00000160  00000+0  39006-3 0  9998
2 48799  87.8947  68.2215 0002109  77.5525 282.5841 13.15548889132760
ONEWEB-0215             
1 48800U 21045AK  24049.77233936 -.00000086  00000+0 -26237-3 0  9999
2 48800  87.8940  68.2386 0002254  66.1003 294.0364 13.15549886132611
ONEWEB-0216             
1 48801U 21045AL  24049.78185884 -.00000035  00000+0 -12837-3 0  9994
2 48801  87.8939  68.2765 0002149  92.6995 267.4381 13.15549707132624
ONEWEB-0239             
1 48802U 21045AM  24050.09083607 -.00000005  00000+0 -46286-4 0  9994
2 48802  87.8950  68.1797 0002089  64.5635 295.5711 13.15549535133847
ONEWEB-0249             
1 48967U 21060A   24049.93806647  .00000048  00000+0  90757-4 0  9998
2 48967  87.9062  37.7820 0001857  86.5261 273.6083 13.16595581127861
ONEWEB-0250             
1 48968U 21060B   24049.94283307  .00000101  00000+0  22977-3 0  9990
2 48968  87.9062  37.7652 0001857  75.5786 284.5551 13.16594560127840
ONEWEB-0252             
1 48970U 21060D   24050.19773080  .00000080  00000+0  17584-3 0  9998
2 48970  87.9064  37.7233 0002018  86.6824 273.4538 13.16595234129232
ONEWEB-0253             
1 48971U 21060E   24050.49065108  .00000148  00000+0  35338-3 0  9999
2 48971  87.9062  37.6798 0002095  78.5400 281.5966 13.16593828129198
ONEWEB-0254             
1 48972U 21060F   24050.19615304  .00000102  00000+0  23335-3 0  9990
2 48972  87.9064  37.7139 0002110  77.7411 282.3956 13.16594107129157
ONEWEB-0255             
1 48973U 21060G   24049.93016667 -.00000032  00000+0 -11605-3 0  9999
2 48973  87.9059  37.8020 0001851  84.1616 275.9726 13.16594023127914
ONEWEB-0256             
1 48974U 21060H   24049.95629915  .00000223  00000+0  54848-3 0  9994
2 48974  87.9066  37.7963 0001975  90.3055 269.8302 13.16594296127881
ONEWEB-0257             
1 48975U 21060J   24049.91273012 -.00000003  00000+0 -40518-4 0  9992
2 48975  87.9063  37.7789 0002083  86.5578 273.5791 13.16595790127832
ONEWEB-0258             
1 48976U 21060K   24049.91433170 -.00000001  00000+0 -37435-4 0  9998
2 48976  87.9062  37.8077 0001835  84.6972 275.4369 13.16594306127849
ONEWEB-0259             
1 48977U 21060L   24049.90799960 -.00000021  00000+0 -88894-4 0  9997
2 48977  87.9061  37.7938 0001745  76.4324 283.7001 13.16594175127876
ONEWEB-0260             
1 48978U 21060M   24049.90166032  .00000004  00000+0 -23398-4 0  9994
2 48978  87.9063  37.8243 0002473  94.9711 265.1702 13.16595802127851
ONEWEB-0261             
1 48979U 21060N   24049.94440203  .00000072  00000+0  15457-3 0  9994
2 48979  87.9061  37.8057 0002435  74.8027 285.3373 13.16594551127913
ONEWEB-0262             
1 48980U 21060P   24050.00139605 -.00000006  00000+0 -49399-4 0  9998
2 48980  87.9060  37.7616 0001839  69.6846 290.4482 13.16595570129183
ONEWEB-0263             
1 48981U 21060Q   24049.95705813  .00000094  00000+0  21199-3 0  9993
2 48981  87.9065  37.7831 0002167  72.7803 287.3565 13.16596327127840
ONEWEB-0264             
1 48982U 21060R   24049.91829333 -.00000014  00000+0 -69764-4 0  9999
2 48982  87.9062  37.8032 0001939  84.4279 275.7073 13.16593874127844
ONEWEB-0266             
1 48984U 21060T   24050.01564817  .00000087  00000+0  19307-3 0  9992
2 48984  87.9061  37.7644 0001709  86.8217 273.3109 13.16594978129141
ONEWEB-0267             
1 48985U 21060U   24049.95074875  .00000135  00000+0  31956-3 0  9992
2 48985  87.9061  37.7785 0002273  81.3923 278.7465 13.16594947127844
ONEWEB-0268             
1 48986U 21060V   24049.91907717 -.00000040  00000+0 -13839-3 0  9996
2 48986  87.9061  37.7908 0002054  87.6374 272.4992 13.16595569128105
